GSAT0101 (PRN E11)      
1 37846U 11060A   19202.53249336 -.00000060  00000-0  00000-0 0  9992
2 37846  56.4034  50.4338 0003069  15.5132 344.5619  1.70475888 48114
GSAT0102 (PRN E12)      
1 37847U 11060B   19204.50936449 -.00000053  00000-0  00000+0 0  9991
2 37847  56.4051  50.3785 0003310 337.7918 201.5625  1.70475862 48277
GSAT0103 (PRN E19)      
1 38857U 12055A   19203.74756887  .00000050  00000-0  00000+0 0  9995
2 38857  54.9386 170.8903 0004864 269.7505  90.1596  1.70473929 42178
GSAT0104 (PRN E20)      
1 38858U 12055B   19203.68184578  .00000049  00000-0  00000+0 0  9999
2 38858  54.9394 170.8913 0003797 276.7790  83.1432  1.70473891 42121
GSAT0201 (PRN E18)      
1 40128U 14050A   19203.45158250 -.00000098  00000-0  00000-0 0  9998
2 40128  50.5738  14.5849 1666587  88.7157 290.2945  1.85518891 31563
GSAT0202 (PRN E14)      
1 40129U 14050B   19203.71654009 -.00000097  00000-0  00000+0 0  9999
2 40129  50.6169  13.5987 1665597  89.5786 289.4589  1.85519566 33670
GSAT0203 (PRN E26)      
1 40544U 15017A   19203.48554785 -.00000057  00000-0  00000+0 0  9994
2 40544  56.1962  50.5879 0001646 239.9641 120.0842  1.70474904 26879
GSAT0204 (PRN E22)      
1 40545U 15017B   19201.50766351 -.00000064  00000-0  00000-0 0  9999
2 40545  56.2012  50.6571 0001678 140.8714 219.2080  1.70475419 26847
GSAT0205 (PRN E24)      
1 40889U 15045A   19204.09730321 -.00000027  00000-0  00000+0 0  9994
2 40889  56.4154 291.1862 0001473   9.0485 351.0160  1.70475549 24033
GSAT0206 (PRN E30)      
1 40890U 15045B   19203.73039291 -.00000028  00000-0  00000+0 0  9995
2 40890  56.4147 291.1929 0000428 253.1116 106.9460  1.70475575 24054
GSAT0209 (PRN E09)      
1 41174U 15079A   19203.90166066  .00000050  00000-0  00000+0 0  9992
2 41174  54.9528 170.5809 0006224 302.1355  57.7704  1.70473311 22376
GSAT0208 (PRN E08)      
1 41175U 15079B   19204.12147116  .00000051  00000-0  00000+0 0  9994
2 41175  54.9503 170.5748 0005382 301.7925  58.1223  1.70473390 22383
GSAT0211 (PRN E02)      
1 41549U 16030A   19204.24396015 -.00000026  00000-0  00000+0 0  9997
2 41549  56.5551 291.0012 0002575 268.1010  91.9315  1.70475298 19678
GSAT0210 (PRN E01)      
1 41550U 16030B   19202.77727307 -.00000029  00000-0  00000+0 0  9990
2 41550  56.5565 291.0433 0003357 235.2764 124.7556  1.70475402 19648
GSAT0207 (PRN E07)      
1 41859U 16069A   19203.02162483  .00000045  00000-0  00000-0 0  9999
2 41859  54.6106 171.0509 0006069 292.4544  67.4435  1.70473270 16563
GSAT0212 (PRN E03)      
1 41860U 16069B   19199.35553793  .00000025  00000-0  00000+0 0  9996
2 41860  54.6077 171.1522 0005092 306.3578  53.5442  1.70473265 16596
GSAT0213 (PRN E04)      
1 41861U 16069C   19203.82772443  .00000050  00000-0  00000-0 0  9999
2 41861  54.6107 171.0315 0005115 276.2489  83.6589  1.70473419 16678
GSAT0214 (PRN E05)      
1 41862U 16069D   19203.97462915  .00000050  00000-0  00000+0 0  9995
2 41862  54.6091 171.0231 0004375 281.3171  78.6005  1.70473267 16667
GSAT0215 (PRN E21)      
1 43055U 17079A   19202.70342234 -.00000029  00000-0  00000+0 0  9991
2 43055  56.5310 290.8926 0003034 223.5535 136.4864  1.70474506  9982
GSAT0216 (PRN E25)      
1 43056U 17079B   19204.16958537 -.00000026  00000-0  00000+0 0  9990
2 43056  56.5305 290.8520 0004640 241.9932 118.0222  1.70474580  9993
GSAT0217 (PRN E27)      
1 43057U 17079C   19203.80299663 -.00000027  00000-0  00000+0 0  9990
2 43057  56.5290 290.8632 0003823 249.3175 110.7043  1.70474596 10005
GSAT0218 (PRN E31)      
1 43058U 17079D   19202.26320599 -.00000030  00000-0  00000-0 0  9998
2 43058  56.5303 290.9026 0005110 241.0549 118.9580  1.70474583 10006
GSAT0221 (PRN E15)      
1 43564U 18060A   19203.92523327 -.00000055  00000-0  00000+0 0  9995
2 43564  56.5872  50.1159 0002436 277.9299  82.1066  1.70475931  6194
GSAT0222 (PRN E33)      
1 43565U 18060B   19204.14513268 -.00000054  00000-0  00000+0 0  9993
2 43565  56.5905  50.1087 0002348 294.5062  65.5336  1.70475969  6238
GSAT0219 (PRN E36)      
1 43566U 18060C   19202.60538116 -.00000060  00000-0  00000+0 0  9999
2 43566  56.5891  50.1527 0001946 287.4806  72.5634  1.70475822  6183
GSAT0220 (PRN E13)      
1 43567U 18060D   19203.41181715 -.00000057  00000-0  00000+0 0  9995
2 43567  56.5891  50.1315 0001971 288.9597  71.0834  1.70475921  6175
